{
  "type": "FeatureCollection",
  "features": [
    {
      "type": "Feature",
      "properties": {
        "norad_id": 64751,
        "name": "PROGRESS-MS 31",
        "group": "stations",
        "lat": -5.730637446449376,
        "lon": 127.4109984939484,
        "alt_km": 419.8586712836559,
        "timestamp": "2025-12-14T20:40:30.538715+00:00",
        "meta_object_name": "PROGRESS-MS 31",
        "meta_object_id": "2025-146A",
        "meta_epoch": "2025-12-14T05:13:44.174496",
        "meta_mean_motion": 15.49586484,
        "meta_eccentricity": 0.00032642,
        "meta_inclination": 51.6305,
        "meta_ra_of_asc_node": 135.1599,
        "meta_arg_of_pericenter": 246.9077,
        "meta_mean_anomaly": 113.1568,
        "meta_ephemeris_type": 0,
        "meta_classification_type": "U",
        "meta_norad_cat_id": 64751,
        "meta_element_set_no": 999,
        "meta_rev_at_epoch": 675,
        "meta_bstar": 0.00022198491,
        "meta_mean_motion_dot": 0.00012052,
        "meta_mean_motion_ddot": 0,
        "tle_line1": "1 64751U 25146A   25348.21787239  .00012052  00000+0  22198-3 0  9996",
        "tle_line2": "2 64751  51.6305 135.1599 0003264 246.9077 113.1568 15.49586484  6755"
      },
      "geometry": {
        "type": "Point",
        "coordinates": [
          127.4109984939484,
          -5.730637446449376
        ]
      }
    },
    {
      "type": "Feature",
      "properties": {
        "norad_id": 64786,
        "name": "TIANZHOU-9",
        "group": "stations",
        "lat": -4.2394116713046905,
        "lon": -171.35939583883905,
        "alt_km": 393.9144352625108,
        "timestamp": "2025-12-14T20:40:30.538725+00:00",
        "meta_object_name": "TIANZHOU-9",
        "meta_object_id": "2025-149A",
        "meta_epoch": "2025-12-14T07:34:58.944000",
        "meta_mean_motion": 15.59258965,
        "meta_eccentricity": 0.00080649,
        "meta_inclination": 41.4685,
        "meta_ra_of_asc_node": 7.139,
        "meta_arg_of_pericenter": 44.1445,
        "meta_mean_anomaly": 316.0035,
        "meta_ephemeris_type": 0,
        "meta_classification_type": "U",
        "meta_norad_cat_id": 64786,
        "meta_element_set_no": 999,
        "meta_rev_at_epoch": 25530,
        "meta_bstar": 0.00032167744,
        "meta_mean_motion_dot": 0.00025793,
        "meta_mean_motion_ddot": 0,
        "tle_line1": "1 64786U 25149A   25348.31596000  .00025793  00000+0  32168-3 0  9996",
        "tle_line2": "2 64786  41.4685   7.1390 0008064  44.1445 316.0035 15.59258965255309"
      },
      "geometry": {
        "type": "Point",
        "coordinates": [
          -171.35939583883905,
          -4.2394116713046905
        ]
      }
    },
    {
      "type": "Feature",
      "properties": {
        "norad_id": 65077,
        "name": "CREW DRAGON 11",
        "group": "stations",
        "lat": -5.730636437058162,
        "lon": 127.4109993031518,
        "alt_km": 419.8586712124661,
        "timestamp": "2025-12-14T20:40:30.538735+00:00",
        "meta_object_name": "CREW DRAGON 11",
        "meta_object_id": "2025-166A",
        "meta_epoch": "2025-12-14T05:13:44.174496",
        "meta_mean_motion": 15.49586484,
        "meta_eccentricity": 0.00032642,
        "meta_inclination": 51.6305,
        "meta_ra_of_asc_node": 135.1599,
        "meta_arg_of_pericenter": 246.9077,
        "meta_mean_anomaly": 113.1568,
        "meta_ephemeris_type": 0,
        "meta_classification_type": "U",
        "meta_norad_cat_id": 65077,
        "meta_element_set_no": 999,
        "meta_rev_at_epoch": 214,
        "meta_bstar": 0.00022198491,
        "meta_mean_motion_dot": 0.00012052,
        "meta_mean_motion_ddot": 0,
        "tle_line1": "1 65077U 25166A   25348.21787239  .00012052  00000+0  22198-3 0  9990",
        "tle_line2": "2 65077  51.6305 135.1599 0003264 246.9077 113.1568 15.49586484  2146"
      },
      "geometry": {
        "type": "Point",
        "coordinates": [
          127.4109993031518,
          -5.730636437058162
        ]
      }
    },
    {
      "type": "Feature",
      "properties": {
        "norad_id": 65304,
        "name": "DRAGON CRS-33",
        "group": "stations",
        "lat": -5.730635780953756,
        "lon": 127.41099982913404,
        "alt_km": 419.8586711661919,
        "timestamp": "2025-12-14T20:40:30.538748+00:00",
        "meta_object_name": "DRAGON CRS-33",
        "meta_object_id": "2025-186A",
        "meta_epoch": "2025-12-14T05:13:44.174496",
        "meta_mean_motion": 15.49586484,
        "meta_eccentricity": 0.00032642,
        "meta_inclination": 51.6305,
        "meta_ra_of_asc_node": 135.1599,
        "meta_arg_of_pericenter": 246.9077,
        "meta_mean_anomaly": 113.1568,
        "meta_ephemeris_type": 0,
        "meta_classification_type": "U",
        "meta_norad_cat_id": 65304,
        "meta_element_set_no": 999,
        "meta_rev_at_epoch": 11,
        "meta_bstar": 0.00022198491,
        "meta_mean_motion_dot": 0.00012052,
        "meta_mean_motion_ddot": 0,
        "tle_line1": "1 65304U 25186A   25348.21787239  .00012052  00000+0  22198-3 0  9995",
        "tle_line2": "2 65304  51.6305 135.1599 0003264 246.9077 113.1568 15.49586484   114"
      },
      "geometry": {
        "type": "Point",
        "coordinates": [
          127.41099982913404,
          -5.730635780953756
        ]
      }
    },
    {
      "type": "Feature",
      "properties": {
        "norad_id": 65586,
        "name": "PROGRESS-MS 32",
        "group": "stations",
        "lat": -5.730635276259084,
        "lon": 127.411000233735,
        "alt_km": 419.85867113059976,
        "timestamp": "2025-12-14T20:40:30.538758+00:00",
        "meta_object_name": "PROGRESS-MS 32",
        "meta_object_id": "2025-204A",
        "meta_epoch": "2025-12-14T05:13:44.174496",
        "meta_mean_motion": 15.49586484,
        "meta_eccentricity": 0.00032642,
        "meta_inclination": 51.6305,
        "meta_ra_of_asc_node": 135.1599,
        "meta_arg_of_pericenter": 246.9077,
        "meta_mean_anomaly": 113.1568,
        "meta_ephemeris_type": 0,
        "meta_classification_type": "U",
        "meta_norad_cat_id": 65586,
        "meta_element_set_no": 999,
        "meta_rev_at_epoch": 27,
        "meta_bstar": 0.00022198491,
        "meta_mean_motion_dot": 0.00012052,
        "meta_mean_motion_ddot": 0,
        "tle_line1": "1 65586U 25204A   25348.21787239  .00012052  00000+0  22198-3 0  9998",
        "tle_line2": "2 65586  51.6305 135.1599 0003264 246.9077 113.1568 15.49586484   273"
      },
      "geometry": {
        "type": "Point",
        "coordinates": [
          127.411000233735,
          -5.730635276259084
        ]
      }
    },
    {
      "type": "Feature",
      "properties": {
        "norad_id": 65616,
        "name": "CYGNUS NG-23",
        "group": "stations",
        "lat": -5.730634771563181,
        "lon": 127.41100063833692,
        "alt_km": 419.8586710950012,
        "timestamp": "2025-12-14T20:40:30.538768+00:00",
        "meta_object_name": "CYGNUS NG-23",
        "meta_object_id": "2025-208A",
        "meta_epoch": "2025-12-14T05:13:44.174496",
        "meta_mean_motion": 15.49586484,
        "meta_eccentricity": 0.00032642,
        "meta_inclination": 51.6305,
        "meta_ra_of_asc_node": 135.1599,
        "meta_arg_of_pericenter": 246.9077,
        "meta_mean_anomaly": 113.1568,
        "meta_ephemeris_type": 0,
        "meta_classification_type": "U",
        "meta_norad_cat_id": 65616,
        "meta_element_set_no": 999,
        "meta_rev_at_epoch": 22,
        "meta_bstar": 0.00022198491,
        "meta_mean_motion_dot": 0.00012052,
        "meta_mean_motion_ddot": 0,
        "tle_line1": "1 65616U 25208A   25348.21787239  .00012052  00000+0  22198-3 0  9996",
        "tle_line2": "2 65616  51.6305 135.1599 0003264 246.9077 113.1568 15.49586484   222"
      },
      "geometry": {
        "type": "Point",
        "coordinates": [
          127.41100063833692,
          -5.730634771563181
        ]
      }
    },
    {
      "type": "Feature",
      "properties": {
        "norad_id": 65729,
        "name": "DRAGONFLY",
        "group": "stations",
        "lat": 26.707776122442727,
        "lon": -78.60731250832396,
        "alt_km": 351.48904062122256,
        "timestamp": "2025-12-14T20:40:30.538778+00:00",
        "meta_object_name": "DRAGONFLY",
        "meta_object_id": "1998-067XH",
        "meta_epoch": "2025-12-13T16:36:27.743328",
        "meta_mean_motion": 15.72310549,
        "meta_eccentricity": 0.00068171,
        "meta_inclination": 51.6241,
        "meta_ra_of_asc_node": 130.8872,
        "meta_arg_of_pericenter": 284.278,
        "meta_mean_anomaly": 75.7461,
        "meta_ephemeris_type": 0,
        "meta_classification_type": "U",
        "meta_norad_cat_id": 65729,
        "meta_element_set_no": 999,
        "meta_rev_at_epoch": 1331,
        "meta_bstar": 0.0013020604,
        "meta_mean_motion_dot": 0.00179632,
        "meta_mean_motion_ddot": 0,
        "tle_line1": "1 65729U 98067XH  25347.69198777  .00179632  00000+0  13021-2 0  9990",
        "tle_line2": "2 65729  51.6241 130.8872 0006817 284.2780  75.7461 15.72310549 13317"
      },
      "geometry": {
        "type": "Point",
        "coordinates": [
          -78.60731250832396,
          26.707776122442727
        ]
      }
    }
  ]
}